{
  "norad_id": 54667,
  "name": "ONEWEB-0603",
  "history": [
    {
      "epoch": "2026-03-28T20:12:32.604192",
      "apogee_km": 1178.9844310296903,
      "perigee_km": 1176.518944550865,
      "latitude_deg": 66.88059374539424,
      "longitude_deg": 87.53622688003816,
      "semi_major_axis_km": 7555.888687790278,
      "eccentricity": 0.00016315,
      "inclination_deg": 87.9183,
      "raan_deg": 259.9632,
      "arg_perigee_deg": 100.4197,
      "mean_anomaly_deg": 259.7121,
      "mean_motion_rev_day": 13.21826441
    },
    {
      "epoch": "2026-03-28T22:01:32.882016",
      "apogee_km": 1178.9803545366412,
      "perigee_km": 1176.5307341737607,
      "latitude_deg": 72.64071309100449,
      "longitude_deg": 94.80320223979652,
      "semi_major_axis_km": 7555.892544355201,
      "eccentricity": 0.0001621,
      "inclination_deg": 87.9184,
      "raan_deg": 259.9481,
      "arg_perigee_deg": 100.5294,
      "mean_anomaly_deg": 259.6023,
      "mean_motion_rev_day": 13.21825429
    }
  ]
}